ALOS-2                  
1 39766U 14029A   26199.92661521  .00000350  00000+0  53799-4 0  9990
2 39766  97.9230 296.6369 0001593  90.7502 269.3892 14.79471693656271
KAZEOSAT 2              
1 40010U 14033A   26199.88902900 -.00000012  00000+0  44300-5 0  9998
2 40010  97.5391  37.8239 0007662 205.9024 154.1809 14.85501190653664
HODOYOSHI-4             
1 40011U 14033B   26199.97240832  .00000228  00000+0  30316-4 0  9997
2 40011  97.5459  23.2628 0022931 196.7727 163.2735 14.88192267653533
DEIMOS-2                
1 40013U 14033D   26199.93473925  .00001165  00000+0  11493-3 0  9991
2 40013  97.5780  73.3022 0001360 107.9793 252.1576 14.93802508642469
HODOYOSHI-3             
1 40015U 14033F   26199.91275699  .00000494  00000+0  62954-4 0  9992
2 40015  97.6451   1.6829 0031387 249.0891 110.6964 14.85441567652336
SPOT 7                  
1 40053U 14034A   26199.96019911  .00000163  00000+0  42401-4 0  9991
2 40053  98.0609 261.6307 0001628  95.0564 265.0823 14.60982631641778
SKYSAT-B                
1 40072U 14037D   26199.86339235  .00000567  00000+0  68340-4 0  9996
2 40072  98.3856 160.6392 0005859 161.5941 198.5487 14.88096705650679
WORLDVIEW-3 (WV-3)      
1 40115U 14048A   26199.90297203  .00000350  00000+0  47263-4 0  9990
2 40115  97.8554 274.2966 0001582 150.5398 209.5906 14.85067265646612
GAOFEN-2                
1 40118U 14049A   26199.93279884  .00000232  00000+0  36886-4 0  9990
2 40118  98.0090 264.1073 0008491 124.5338 235.6677 14.80929233643935
YAOGAN-21               
1 40143U 14053A   26199.95306152  .00003350  00000+0  12981-3 0  9997
2 40143  97.1457 238.8308 0007281 355.1576   4.9592 15.26788569659803
YAOGAN-22               
1 40275U 14063A   26199.89896918 -.00000029  00000+0  46628-4 0  9998
2 40275 100.7767 351.7043 0006905 117.4311 242.7503 13.15531708563987
ASNARO                  
1 40298U 14070A   26199.89805010  .00002306  00000+0  11207-3 0  9997
2 40298  97.3433 275.1595 0004691  78.3222 281.8539 15.19405338648825
YAOGAN-24               
1 40310U 14072A   26199.94114650  .00000298  00000+0  50752-4 0  9990
2 40310  98.1534 337.5501 0014884 157.8909 202.2945 14.76120517628406
CBERS 4                 
1 40336U 14079A   26199.96061059 -.00000042  00000+0  50363-7 0  9990
2 40336  98.3510 255.7926 0000641  62.0167 298.1084 14.35516441608519
YAOGAN-26               
1 40362U 14088A   26199.93782661  .00010609  00000+0  20089-3 0  9992
2 40362  97.0656 199.4315 0001276 311.0342  49.0799 15.48538363642615
SMAP                    
1 40376U 15003A   26199.94298108  .00000176  00000+0  43026-4 0  9999
2 40376  98.1285 206.5891 0001622  93.5950 266.5438 14.63390896612268
KOMPSAT-3A              
1 40536U 15014A   26199.90656920  .00021366  00000+0  29212-3 0  9999
2 40536  97.6900 193.6279 0055791  62.5501 298.1410 15.55579337626744
SENTINEL-2A             
1 40697U 15028A   26199.89302633  .00000073  00000+0  44329-4 0  9998
2 40697  98.5673 274.2930 0001305  96.1306 264.0026 14.30815041578262
GAOFEN-8                
1 40701U 15030A   26199.92173723  .00016190  00000+0  32139-3 0  9999
2 40701  97.6895  35.2217 0009898  83.9411 276.2966 15.47039004616350
CARBONITE 1 (CBNT-1)    
1 40718U 15032D   26199.88099267  .00000747  00000+0  96481-4 0  9996
2 40718  97.6524  16.6238 0014155 184.5148 175.5941 14.83674472594048
YAOGAN-27               
1 40878U 15040A   26199.95728830 -.00000408  00000+0 -96399-3 0  9998
2 40878 100.1174 184.9641 0008666 137.0674 223.1118 13.16069921521846
GAOFEN-9 01             
1 40894U 15047A   26199.97886169  .00000433  00000+0  59241-4 0  9997
2 40894  97.6263 234.2276 0028190  38.5649 321.7573 14.82939098584908
YAOGAN-28               
1 41026U 15064A   26199.89551022  .00003592  00000+0  13481-3 0  9996
2 41026  97.3117 337.5261 0012002  81.6815 278.5785 15.27787177595524
YAOGAN-29               
1 41038U 15069A   26199.95501131 -.00000215  00000+0 -19837-4 0  9990
2 41038  98.0014 228.6362 0000394   0.5241 359.5973 14.83106212575339
KENT RIDGE 1            
1 41167U 15077B   26199.72570507  .00002236  00000+0  60393-4 0  9996
2 41167  14.9807  31.4027 0008263 324.6648  35.3126 15.23294374585917
GAOFEN-4                
1 41194U 15083A   26199.72526807 -.00000341  00000+0  00000+0 0  9997
2 41194   0.4372  83.8070 0004242 125.0645  94.4453  1.00270986 38843
JASON-3                 
1 41240U 16002A   26199.92508406 -.00000036  00000+0  10541-3 0  9994
2 41240  66.0416  59.1102 0008147 270.5945  89.4140 12.87628846491334
SENTINEL-3A             
1 41335U 16011A   26199.91525131  .00000044  00000+0  36285-4 0  9994
2 41335  98.6234 266.8407 0001324  89.1466 270.9866 14.26740431542581
ZIYUAN 3-02 (ZY 3-02)   
1 41556U 16033A   26199.95845887  .00002747  00000+0  12501-3 0  9996
2 41556  97.3821 275.1222 0014478 171.9031 188.2442 15.21455353562815
CARTOSAT-2C             
1 41599U 16040A   26199.93882411  .00000793  00000+0  40822-4 0  9990
2 41599  97.4460 259.4768 0009255  33.9117 326.2708 15.19277417558534
