OBJECT_NAME,OBJECT_ID,EPOCH,MEAN_MOTION,ECCENTRICITY,INCLINATION,RA_OF_ASC_NODE,ARG_OF_PERICENTER,MEAN_ANOMALY,EPHEMERIS_TYPE,CLASSIFICATION_TYPE,NORAD_CAT_ID,ELEMENT_SET_NO,REV_AT_EPOCH,BSTAR,MEAN_MOTION_DOT,MEAN_MOTION_DDOT
ALOS-2,2014-029A,2026-07-18T22:14:19.554144,14.79471693,.00015933,97.9230,296.6369,90.7502,269.3892,0,U,39766,999,65627,.53798773E-4,.35E-5,0
KAZEOSAT 2,2014-033A,2026-07-18T21:20:12.105600,14.85501190,.00076627,97.5391,37.8239,205.9024,154.1809,0,U,40010,999,65366,.4429986E-5,-.12E-6,0
HODOYOSHI-4,2014-033B,2026-07-18T23:20:16.078848,14.88192267,.00229316,97.5459,23.2628,196.7727,163.2735,0,U,40011,999,65353,.3031578E-4,.228E-5,0
DEIMOS-2,2014-033D,2026-07-18T22:26:01.471200,14.93802508,.00013609,97.5780,73.3022,107.9793,252.1576,0,U,40013,999,64246,.11492865E-3,.1165E-4,0
HODOYOSHI-3,2014-033F,2026-07-18T21:54:22.203936,14.85441567,.0031387,97.6451,1.6829,249.0891,110.6964,0,U,40015,999,65233,.62953608E-4,.494E-5,0
SPOT 7,2014-034A,2026-07-18T23:02:41.203104,14.60982631,.00016284,98.0609,261.6307,95.0564,265.0823,0,U,40053,999,64177,.42401083E-4,.163E-5,0
SKYSAT-B,2014-037D,2026-07-18T20:43:17.099040,14.88096705,.0005859,98.3856,160.6392,161.5941,198.5487,0,U,40072,999,65067,.68340136E-4,.567E-5,0
WORLDVIEW-3 (WV-3),2014-048A,2026-07-18T21:40:16.783392,14.85067265,.00015826,97.8554,274.2966,150.5398,209.5906,0,U,40115,999,64661,.47263144E-4,.35E-5,0
GAOFEN-2,2014-049A,2026-07-18T22:23:13.819776,14.80929233,.00084911,98.0090,264.1073,124.5338,235.6677,0,U,40118,999,64393,.36885637E-4,.232E-5,0
YAOGAN-21,2014-053A,2026-07-18T22:52:24.515328,15.26788569,.0007281,97.1457,238.8308,355.1576,4.9592,0,U,40143,999,65980,.1298102E-3,.335E-4,0
YAOGAN-22,2014-063A,2026-07-18T21:34:30.937152,13.15531708,.00069056,100.7767,351.7043,117.4311,242.7503,0,U,40275,999,56398,.46628094E-4,-.29E-6,0
ASNARO,2014-070A,2026-07-18T21:33:11.528640,15.19405338,.00046912,97.3433,275.1595,78.3222,281.8539,0,U,40298,999,64882,.11207396E-3,.2306E-4,0
YAOGAN-24,2014-072A,2026-07-18T22:35:15.057600,14.76120517,.00148844,98.1534,337.5501,157.8909,202.2945,0,U,40310,999,62840,.50752401E-4,.298E-5,0
CBERS 4,2014-079A,2026-07-18T23:03:16.754976,14.35516441,.00006413,98.3510,255.7926,62.0167,298.1084,0,U,40336,999,60851,.50363E-7,-.42E-6,0
YAOGAN-26,2014-088A,2026-07-18T22:30:28.219104,15.48538363,.00012768,97.0656,199.4315,311.0342,49.0799,0,U,40362,999,64261,.2008893E-3,.10609E-3,0
SMAP,2015-003A,2026-07-18T22:37:53.565312,14.63390896,.00016221,98.1285,206.5891,93.5950,266.5438,0,U,40376,999,61226,.4302559E-4,.176E-5,0
KOMPSAT-3A,2015-014A,2026-07-18T21:45:27.578880,15.55579337,.00557912,97.6900,193.6279,62.5501,298.1410,0,U,40536,999,62674,.29212029E-3,.21366E-3,0
SENTINEL-2A,2015-028A,2026-07-18T21:25:57.474912,14.30815041,.00013058,98.5673,274.2930,96.1306,264.0026,0,U,40697,999,57826,.44328939E-4,.73E-6,0
GAOFEN-8,2015-030A,2026-07-18T22:07:18.096672,15.47039004,.0009898,97.6895,35.2217,83.9411,276.2966,0,U,40701,999,61635,.32139121E-3,.1619E-3,0
CARBONITE 1 (CBNT-1),2015-032D,2026-07-18T21:08:37.766688,14.83674472,.00141555,97.6524,16.6238,184.5148,175.5941,0,U,40718,999,59404,.96481284E-4,.747E-5,0
YAOGAN-27,2015-040A,2026-07-18T22:58:29.709120,13.16069921,.00086662,100.1174,184.9641,137.0674,223.1118,0,U,40878,999,52184,-.96398882E-3,-.408E-5,0
GAOFEN-9 01,2015-047A,2026-07-18T23:29:33.650016,14.82939098,.00281907,97.6263,234.2276,38.5649,321.7573,0,U,40894,999,58490,.59240855E-4,.433E-5,0
YAOGAN-28,2015-064A,2026-07-18T21:29:32.083008,15.27787177,.00120023,97.3117,337.5261,81.6815,278.5785,0,U,41026,999,59552,.13480705E-3,.3592E-4,0
YAOGAN-29,2015-069A,2026-07-18T22:55:12.977184,14.83106212,.00003949,98.0014,228.6362,0.5241,359.5973,0,U,41038,999,57533,-.19836952E-4,-.215E-5,0
KENT RIDGE 1,2015-077B,2026-07-18T17:25:00.918048,15.23294374,.00082632,14.9807,31.4027,324.6648,35.3126,0,U,41167,999,58591,.60393113E-4,.2236E-4,0
GAOFEN-4,2015-083A,2026-07-18T17:24:23.161248,1.00270986,.00042426,0.4372,83.8070,125.0645,94.4453,0,U,41194,999,3884,0,-.341E-5,0
JASON-3,2016-002A,2026-07-18T22:12:07.262784,12.87628846,.00081472,66.0416,59.1102,270.5945,89.4140,0,U,41240,999,49133,.10541281E-3,-.36E-6,0
SENTINEL-3A,2016-011A,2026-07-18T21:57:57.713184,14.26740431,.0001324,98.6234,266.8407,89.1466,270.9866,0,U,41335,999,54258,.36284868E-4,.44E-6,0
ZIYUAN 3-02 (ZY 3-02),2016-033A,2026-07-18T23:00:10.846368,15.21455353,.00144785,97.3821,275.1222,171.9031,188.2442,0,U,41556,999,56281,.12501286E-3,.2747E-4,0
CARTOSAT-2C,2016-040A,2026-07-18T22:31:54.403104,15.19277417,.00092552,97.4460,259.4768,33.9117,326.2708,0,U,41599,999,55853,.40821622E-4,.793E-5,0
